{"type": "FeatureCollection", "features": [ {"type": "Feature", "properties": {"norad_id": 34833, "name": "IRIDIUM 33 DEB", "group": "iridium-33-debris", "lat": -82.36601907601798, "lon": 19.453002615816292, "alt_km": 739.2509903313658, "timestamp": "2025-12-20T18:51:32.098290+00:00", "meta": {"OBJECT_NAME": "IRIDIUM 33 DEB", "OBJECT_ID": "1997-051MH", "EPOCH": "2025-12-19T09:05:01.669920", "MEAN_MOTION": 14.52414234, "ECCENTRICITY": 0.0021541, "INCLINATION": 86.3931, "RA_OF_ASC_NODE": 48.1333, "ARG_OF_PERICENTER": 78.2401, "MEAN_ANOMALY": 44.9997, "EPHEMERIS_TYPE": 0, "CLASSIFICATION_TYPE": "U", "NORAD_CAT_ID": 34833, "ELEMENT_SET_NO": 999, "REV_AT_EPOCH": 87811, "BSTAR": 0.00049084, "MEAN_MOTION_DOT": 2.026e-05, "MEAN_MOTION_DDOT": 0}, "tle": {"line1": "1 34833U 97051MH  25353.37849155  .00002026  00000+0  49084-3 0  9990", "line2": "2 34833  86.3931  48.1333 0021541  78.2401  44.9997 14.52414234878117"}}, "geometry": {"type": "Point", "coordinates": [19.453002615816292, -82.36601907601798]}}, {"type": "Feature", "properties": {"norad_id": 34870, "name": "IRIDIUM 33 DEB", "group": "iridium-33-debris", "lat": -46.32333675856183, "lon": 134.27374576781, "alt_km": 643.4596408399193, "timestamp": "2025-12-20T18:51:32.098301+00:00", "meta": {"OBJECT_NAME": "IRIDIUM 33 DEB", "OBJECT_ID": "1997-051MQ", "EPOCH": "2025-12-17T15:48:12.189024", "MEAN_MOTION": 14.76525212, "ECCENTRICITY": 0.00169592, "INCLINATION": 86.3102, "RA_OF_ASC_NODE": 311.8309, "ARG_OF_PERICENTER": 164.6796, "MEAN_ANOMALY": 8.9227, "EPHEMERIS_TYPE": 0, "CLASSIFICATION_TYPE": "U", "NORAD_CAT_ID": 34870, "ELEMENT_SET_NO": 999, "REV_AT_EPOCH": 88983, "BSTAR": 0.0011120343, "MEAN_MOTION_DOT": 7.793e-05, "MEAN_MOTION_DDOT": 0}, "tle": {"line1": "1 34870U 97051MQ  25351.65847441  .00007793  00000+0  11120-2 0  9991", "line2": "2 34870  86.3102 311.8309 0016959 164.6796   8.9227 14.76525212889837"}}, "geometry": {"type": "Point", "coordinates": [134.27374576781, -46.32333675856183]}}, {"type": "Feature", "properties": {"norad_id": 34896, "name": "IRIDIUM 33 DEB", "group": "iridium-33-debris", "lat": 47.51159494173755, "lon": 139.0565279654494, "alt_km": 658.1626545545287, "timestamp": "2025-12-20T18:51:32.098311+00:00", "meta": {"OBJECT_NAME": "IRIDIUM 33 DEB", "OBJECT_ID": "1997-051MY", "EPOCH": "2025-12-17T17:20:43.717344", "MEAN_MOTION": 14.6632638, "ECCENTRICITY": 0.00248916, "INCLINATION": 86.3286, "RA_OF_ASC_NODE": 324.4498, "ARG_OF_PERICENTER": 196.3048, "MEAN_ANOMALY": 337.3904, "EPHEMERIS_TYPE": 0, "CLASSIFICATION_TYPE": "U", "NORAD_CAT_ID": 34896, "ELEMENT_SET_NO": 999, "REV_AT_EPOCH": 87692, "BSTAR": 0.00069874419, "MEAN_MOTION_DOT": 3.895e-05, "MEAN_MOTION_DDOT": 0}, "tle": {"line1": "1 34896U 97051MY  25351.72272821  .00003895  00000+0  69874-3 0  9990", "line2": "2 34896  86.3286 324.4498 0024891 196.3048 337.3904 14.66326380876924"}}, "geometry": {"type": "Point", "coordinates": [139.0565279654494, 47.51159494173755]}}, {"type": "Feature", "properties": {"norad_id": 34926, "name": "IRIDIUM 33 DEB", "group": "iridium-33-debris", "lat": -59.728080866834404, "lon": -168.80117644504432, "alt_km": 669.4982747340746, "timestamp": "2025-12-20T18:51:32.098321+00:00", "meta": {"OBJECT_NAME": "IRIDIUM 33 DEB", "OBJECT_ID": "1997-051NF", "EPOCH": "2025-12-20T01:29:58.203744", "MEAN_MOTION": 14.54723166, "ECCENTRICITY": 0.00745564, "INCLINATION": 86.1315, "RA_OF_ASC_NODE": 4.8773, "ARG_OF_PERICENTER": 267.4346, "MEAN_ANOMALY": 147.2463, "EPHEMERIS_TYPE": 0, "CLASSIFICATION_TYPE": "U", "NORAD_CAT_ID": 34926, "ELEMENT_SET_NO": 999, "REV_AT_EPOCH": 86563, "BSTAR": 0.0033633995, "MEAN_MOTION_DOT": 0.00014979, "MEAN_MOTION_DDOT": 0}, "tle": {"line1": "1 34926U 97051NF  25354.06247921  .00014979  00000+0  33634-2 0  9996", "line2": "2 34926  86.1315   4.8773 0074556 267.4346 147.2463 14.54723166865632"}}, "geometry": {"type": "Point", "coordinates": [-168.80117644504432, -59.728080866834404]}}, {"type": "Feature", "properties": {"norad_id": 34985, "name": "IRIDIUM 33 DEB", "group": "iridium-33-debris", "lat": 1.4418660996159431, "lon": 53.53890433655618, "alt_km": 769.7085820463217, "timestamp": "2025-12-20T18:51:32.098344+00:00", "meta": {"OBJECT_NAME": "IRIDIUM 33 DEB", "OBJECT_ID": "1997-051NR", "EPOCH": "2025-12-20T10:36:23.037120", "MEAN_MOTION": 14.42039348, "ECCENTRICITY": 0.00215609, "INCLINATION": 86.369, "RA_OF_ASC_NODE": 53.594, "ARG_OF_PERICENTER": 194.0742, "MEAN_ANOMALY": 183.5086, "EPHEMERIS_TYPE": 0, "CLASSIFICATION_TYPE": "U", "NORAD_CAT_ID": 34985, "ELEMENT_SET_NO": 999, "REV_AT_EPOCH": 87286, "BSTAR": 0.00043685273, "MEAN_MOTION_DOT": 1.457e-05, "MEAN_MOTION_DDOT": 0}, "tle": {"line1": "1 34985U 97051NR  25354.44193330  .00001457  00000+0  43685-3 0  9992", "line2": "2 34985  86.3690  53.5940 0021560 194.0742 183.5086 14.42039348872860"}}, "geometry": {"type": "Point", "coordinates": [53.53890433655618, 1.4418660996159431]}}, {"type": "Feature", "properties": {"norad_id": 35051, "name": "IRIDIUM 33 DEB", "group": "iridium-33-debris", "lat": 82.98591020489441, "lon": 153.85143759876522, "alt_km": 719.4082536680271, "timestamp": "2025-12-20T18:51:32.098357+00:00", "meta": {"OBJECT_NAME": "IRIDIUM 33 DEB", "OBJECT_ID": "1997-051NX", "EPOCH": "2025-12-19T07:34:48.667584", "MEAN_MOTION": 14.47625509, "ECCENTRICITY": 0.0010483, "INCLINATION": 86.3238, "RA_OF_ASC_NODE": 5.9957, "ARG_OF_PERICENTER": 72.9006, "MEAN_ANOMALY": 287.3345, "EPHEMERIS_TYPE": 0, "CLASSIFICATION_TYPE": "U", "NORAD_CAT_ID": 35051, "ELEMENT_SET_NO": 999, "REV_AT_EPOCH": 87091, "BSTAR": 0.00045048, "MEAN_MOTION_DOT": 1.68e-05, "MEAN_MOTION_DDOT": 0}, "tle": {"line1": "1 35051U 97051NX  25353.31584106  .00001680  00000+0  45048-3 0  9990", "line2": "2 35051  86.3238   5.9957 0010483  72.9006 287.3345 14.47625509870911"}}, "geometry": {"type": "Point", "coordinates": [153.85143759876522, 82.98591020489441]}}, {"type": "Feature", "properties": {"norad_id": 35052, "name": "IRIDIUM 33 DEB", "group": "iridium-33-debris", "lat": -18.90804225306205, "lon": 15.76657502744334, "alt_km": 767.1227071882822, "timestamp": "2025-12-20T18:51:32.098367+00:00", "meta": {"OBJECT_NAME": "IRIDIUM 33 DEB", "OBJECT_ID": "1997-051NY", "EPOCH": "2025-12-20T00:34:57.537984", "MEAN_MOTION": 14.38499976, "ECCENTRICITY": 0.00134185, "INCLINATION": 86.3301, "RA_OF_ASC_NODE": 17.3527, "ARG_OF_PERICENTER": 64.7897, "MEAN_ANOMALY": 295.4691, "EPHEMERIS_TYPE": 0, "CLASSIFICATION_TYPE": "U", "NORAD_CAT_ID": 35052, "ELEMENT_SET_NO": 999, "REV_AT_EPOCH": 87380, "BSTAR": 0.00013114955, "MEAN_MOTION_DOT": 4.21e-06, "MEAN_MOTION_DDOT": 0}, "tle": {"line1": "1 35052U 97051NY  25354.02427706  .00000421  00000+0  13115-3 0  9994", "line2": "2 35052  86.3301  17.3527 0013418  64.7897 295.4691 14.38499976873803"}}, "geometry": {"type": "Point", "coordinates": [15.76657502744334, -18.90804225306205]}}, {"type": "Feature", "properties": {"norad_id": 35080, "name": "IRIDIUM 33 DEB", "group": "iridium-33-debris", "lat": 74.28286273102566, "lon": -145.10401932802986, "alt_km": 572.2401179582012, "timestamp": "2025-12-20T18:51:32.098377+00:00", "meta": {"OBJECT_NAME": "IRIDIUM 33 DEB", "OBJECT_ID": "1997-051PF", "EPOCH": "2025-12-19T21:23:19.112352", "MEAN_MOTION": 14.86825728, "ECCENTRICITY": 0.0059091, "INCLINATION": 86.2077, "RA_OF_ASC_NODE": 48.9572, "ARG_OF_PERICENTER": 155.0881, "MEAN_ANOMALY": 205.3218, "EPHEMERIS_TYPE": 0, "CLASSIFICATION_TYPE": "U", "NORAD_CAT_ID": 35080, "ELEMENT_SET_NO": 999, "REV_AT_EPOCH": 69794, "BSTAR": 0.0037964, "MEAN_MOTION_DOT": 0.00035094, "MEAN_MOTION_DDOT": 0}, "tle": {"line1": "1 35080U 97051PF  25353.89119343  .00035094  00000+0  37964-2 0  9995", "line2": "2 35080  86.2077  48.9572 0059091 155.0881 205.3218 14.86825728697942"}}, "geometry": {"type": "Point", "coordinates": [-145.10401932802986, 74.28286273102566]}}, {"type": "Feature", "properties": {"norad_id": 35297, "name": "IRIDIUM 33 DEB", "group": "iridium-33-debris", "lat": 80.560793787199, "lon": 81.66850807630581, "alt_km": 723.5611463549512, "timestamp": "2025-12-20T18:51:32.098387+00:00", "meta": {"OBJECT_NAME": "IRIDIUM 33 DEB", "OBJECT_ID": "1997-051PM", "EPOCH": "2025-12-20T11:50:15.220608", "MEAN_MOTION": 14.451882, "ECCENTRICITY": 0.00180204, "INCLINATION": 86.386, "RA_OF_ASC_NODE": 59.4502, "ARG_OF_PERICENTER": 117.2164, "MEAN_ANOMALY": 243.0877, "EPHEMERIS_TYPE": 0, "CLASSIFICATION_TYPE": "U", "NORAD_CAT_ID": 35297, "ELEMENT_SET_NO": 999, "REV_AT_EPOCH": 70538, "BSTAR": 0.00041153613, "MEAN_MOTION_DOT": 1.463e-05, "MEAN_MOTION_DDOT": 0}, "tle": {"line1": "1 35297U 97051PM  25354.49323172  .00001463  00000+0  41154-3 0  9999", "line2": "2 35297  86.3860  59.4502 0018020 117.2164 243.0877 14.45188200705384"}}, "geometry": {"type": "Point", "coordinates": [81.66850807630581, 80.560793787199]}}, {"type": "Feature", "properties": {"norad_id": 35299, "name": "IRIDIUM 33 DEB", "group": "iridium-33-debris", "lat": -69.85272190837465, "lon": -140.12184689488993, "alt_km": 804.5808775214746, "timestamp": "2025-12-20T18:51:32.098397+00:00", "meta": {"OBJECT_NAME": "IRIDIUM 33 DEB", "OBJECT_ID": "1997-051PP", "EPOCH": "2025-12-20T13:24:11.661120", "MEAN_MOTION": 14.40896133, "ECCENTRICITY": 0.00588105, "INCLINATION": 86.2869, "RA_OF_ASC_NODE": 29.782, "ARG_OF_PERICENTER": 77.5607, "MEAN_ANOMALY": 74.0895, "EPHEMERIS_TYPE": 0, "CLASSIFICATION_TYPE": "U", "NORAD_CAT_ID": 35299, "ELEMENT_SET_NO": 999, "REV_AT_EPOCH": 86443, "BSTAR": 0.00051105789, "MEAN_MOTION_DOT": 1.693e-05, "MEAN_MOTION_DDOT": 0}, "tle": {"line1": "1 35299U 97051PP  25354.55846830  .00001693  00000+0  51106-3 0  9992", "line2": "2 35299  86.2869  29.7820 0058810  77.5607  74.0895 14.40896133864438"}}, "geometry": {"type": "Point", "coordinates": [-140.12184689488993, -69.85272190837465]}}]}